SIRIUSSAT-2             
1 43596U 98067PH  20344.36554324  .08904132  12494-4  57179-3 0  9995
2 43596  51.6062  99.6513 0006261 312.7483  99.6145 16.40921535132742
1998-067PN              
1 43638U 98067PN  20349.57003436  .00026630  00000-0  22036-3 0  9993
2 43638  51.6342 117.1946 0001950 343.2802  16.8130 15.70064441124911
1998-067PP              
1 43639U 98067PP  20349.56330847  .00067821  00000-0  32436-3 0  9994
2 43639  51.6309  99.0258 0004264 347.6744  12.4154 15.82124404125157
STARS-ME                
1 43640U 98067PQ  20349.60210920  .00036913  00000-0  26394-3 0  9994
2 43640  51.6322 110.5686 0003739 345.1163  14.9725 15.73361269125009
ISS DEB (SEDA-AP)       
1 43870U 98067PU  20349.79155968  .00006932  00000-0  91402-4 0  9990
2 43870  51.6350 141.2923 0003734   5.9395 354.1641 15.59670844112775
CATSAT-2                
1 44029U 98067PV  20350.06860100  .00057372  00000-0  36253-3 0  9996
2 44029  51.6389 115.3798 0001868  23.7137 336.3949 15.76029780106888
DELPHINI                
1 44030U 98067PW  20350.15225767  .00084846  00000-0  45216-3 0  9997
2 44030  51.6312 111.1971 0002880 352.5723   7.5235 15.79689737106918
UNITE                   
1 44031U 98067PX  20349.77227248  .00022885  00000-0  21860-3 0  9994
2 44031  51.6362 130.6441 0001986  25.9785 334.1310 15.66633016106623
